{
  "norad_id": 57967,
  "name": "STARLINK-30528",
  "history": [
    {
      "epoch": "2026-03-28T18:02:08.838816Z",
      "apogee_km": 483.9195985092965,
      "perigee_km": 482.1324027708897,
      "latitude_deg": 4.284546980550622e-05,
      "longitude_deg": 131.47417790753727,
      "height_km": 482.816669876215,
      "semi_major_axis_km": 6861.163000640093,
      "eccentricity": 0.00013024,
      "inclination_deg": 43.0,
      "raan_deg": 228.1784,
      "arg_perigee_deg": 269.0987,
      "mean_anomaly_deg": 90.9716,
      "mean_motion_rev_day": 15.27587713
    },
    {
      "epoch": "2026-03-29T01:52:56.659584Z",
      "apogee_km": 483.8706501667875,
      "perigee_km": 482.3008024070132,
      "latitude_deg": -3.275954525924532e-06,
      "longitude_deg": 11.606426360162862,
      "height_km": 482.5532493148064,
      "semi_major_axis_km": 6861.2227262869,
      "eccentricity": 0.0001144,
      "inclination_deg": 43.0013,
      "raan_deg": 226.3322,
      "arg_perigee_deg": 293.1887,
      "mean_anomaly_deg": 66.8844,
      "mean_motion_rev_day": 15.27567767
    }
  ]
}